CTC1_L_00181016-03
1 89433U 25205GP  26070.40833333  .00000000  00000+0  00000-0 0  9992
2 89433  95.0000 180.0000 0000000   0.0000   0.0000 13.89609395    16
CTC1_L_00181016-04
1 89434U 25961WS  26070.40833333  .00000000  00000+0  00000-0 0  9992
2 89434  95.0000 180.0000 0000000   0.0000  90.0000 13.89609395    16
CTC1_L_00181017-01
1 89435U 23976OP  26070.40833333  .00000000  00000+0  00000-0 0  9997
2 89435  95.0000 192.0000 0000000   0.0000 192.0000 13.89609395    13
CTC1_L_00181017-02
1 89436U 22975JC  26070.40833333  .00000000  00000+0  00000-0 0  9996
2 89436  95.0000 192.0000 0000000   0.0000 282.0000 13.89609395    14
CTC1_L_00181017-03
1 89437U 23740SZ  26070.40833333  .00000000  00000+0  00000-0 0  9998
2 89437  95.0000 192.0000 0000000   0.0000  12.0000 13.89609395    16
CTC1_L_00181017-04
1 89438U 22288FN  26070.40833333  .00000000  00000+0  00000-0 0  9995
2 89438  95.0000 192.0000 0000000   0.0000 102.0000 13.89609395    17
CTC1_L_00181018-01
1 89439U 26246DT  26070.40833333  .00000000  00000+0  00000-0 0  9994
2 89439  95.0000 204.0000 0000000   0.0000 204.0000 13.89609395    15
CTC1_L_00181018-02
1 89440U 26332DW  26070.40833333  .00000000  00000+0  00000-0 0  9992
2 89440  95.0000 204.0000 0000000   0.0000 294.0000 13.89609395    16
CTC1_L_00181018-03
1 89441U 24900XP  26070.40833333  .00000000  00000+0  00000-0 0  9992
2 89441  95.0000 204.0000 0000000   0.0000  24.0000 13.89609395    18
CTC1_L_00181018-04
1 89442U 24620VX  26070.40833333  .00000000  00000+0  00000-0 0  9992
2 89442  95.0000 204.0000 0000000   0.0000 114.0000 13.89609395    19
CTC1_L_00181019-01
1 89443U 26053RN  26070.40833333  .00000000  00000+0  00000-0 0  9995
2 89443  95.0000 216.0000 0000000   0.0000 216.0000 13.89609395    16
CTC1_L_00181019-02
1 89444U 23053DA  26070.40833333  .00000000  00000+0  00000-0 0  9993
2 89444  95.0000 216.0000 0000000   0.0000 306.0000 13.89609395    17
CTC1_L_00181019-03
1 89445U 25056JJ  26070.40833333  .00000000  00000+0  00000-0 0  9999
2 89445  95.0000 216.0000 0000000   0.0000  36.0000 13.89609395    18
CTC1_L_00181019-04
1 89446U 26917MI  26070.40833333  .00000000  00000+0  00000-0 0  9997
2 89446  95.0000 216.0000 0000000   0.0000 126.0000 13.89609395    19
CTC1_L_00181020-01
1 89447U 24739SX  26070.40833333  .00000000  00000+0  00000-0 0  9998
2 89447  95.0000 228.0000 0000000   0.0000 228.0000 13.89609395    16
CTC1_L_00181020-02
1 89448U 24327VI  26070.40833333  .00000000  00000+0  00000-0 0  9992
2 89448  95.0000 228.0000 0000000   0.0000 318.0000 13.89609395    17
CTC1_L_00181020-03
1 89449U 23057JU  26070.40833333  .00000000  00000+0  00000-0 0  9992
2 89449  95.0000 228.0000 0000000   0.0000  48.0000 13.89609395    18
CTC1_L_00181020-04
1 89450U 26204RO  26070.40833333  .00000000  00000+0  00000-0 0  9991
2 89450  95.0000 228.0000 0000000   0.0000 138.0000 13.89609395    10
CTC1_L_00181021-01
1 89451U 22695MF  26070.40833333  .00000000  00000+0  00000-0 0  9992
2 89451  95.0000 240.0000 0000000   0.0000 240.0000 13.89609395    19
CTC1_L_00181021-02
1 89452U 26324TJ  26070.40833333  .00000000  00000+0  00000-0 0  9996
2 89452  95.0000 240.0000 0000000   0.0000 330.0000 13.89609395    10
CTC1_L_00181021-03
1 89453U 22465HK  26070.40833333  .00000000  00000+0  00000-0 0  9999
2 89453  95.0000 240.0000 0000000   0.0000  60.0000 13.89609395    11
CTC1_L_00181021-04
1 89454U 25345ZX  26070.40833333  .00000000  00000+0  00000-0 0  9990
2 89454  95.0000 240.0000 0000000   0.0000 150.0000 13.89609395    12
CTC1_L_00181022-01
1 89455U 24500TT  26070.40833333  .00000000  00000+0  00000-0 0  9993
2 89455  95.0000 252.0000 0000000   0.0000 252.0000 13.89609395    19
CTC1_L_00181022-02
1 89456U 25403SL  26070.40833333  .00000000  00000+0  00000-0 0  9997
2 89456  95.0000 252.0000 0000000   0.0000 342.0000 13.89609395    10
CTC1_L_00181022-03
1 89457U 22336GQ  26070.40833333  .00000000  00000+0  00000-0 0  9990
2 89457  95.0000 252.0000 0000000   0.0000  72.0000 13.89609395    11
CTC1_L_00181022-04
1 89458U 26042FK  26070.40833333  .00000000  00000+0  00000-0 0  9999
2 89458  95.0000 252.0000 0000000   0.0000 162.0000 13.89609395    12
CTC1_L_00181023-01
1 89459U 23250AR  26070.40833333  .00000000  00000+0  00000-0 0  9998
2 89459  95.0000 264.0000 0000000   0.0000 264.0000 13.89609395    19
CTC1_L_00181023-02
1 89460U 26421JN  26070.40833333  .00000000  00000+0  00000-0 0  9993
2 89460  95.0000 264.0000 0000000   0.0000 354.0000 13.89609395    11
CTC1_L_00181023-03
1 89461U 26515WJ  26070.40833333  .00000000  00000+0  00000-0 0  9998
2 89461  95.0000 264.0000 0000000   0.0000  84.0000 13.89609395    12
CTC1_L_00181023-04
1 89462U 22831AU  26070.40833333  .00000000  00000+0  00000-0 0  9996
2 89462  95.0000 264.0000 0000000   0.0000 174.0000 13.89609395    13
CTC1_L_00181024-01
1 89463U 22454RJ  26070.40833333  .00000000  00000+0  00000-0 0  9998
2 89463  95.0000 276.0000 0000000   0.0000 276.0000 13.89609395    10
CTC1_L_00181024-02
1 89464U 26461ZV  26070.40833333  .00000000  00000+0  00000-0 0  9991
2 89464  95.0000 276.0000 0000000   0.0000   6.0000 13.89609395    12
CTC1_L_00181024-03
1 89465U 26625ZT  26070.40833333  .00000000  00000+0  00000-0 0  9994
2 89465  95.0000 276.0000 0000000   0.0000  96.0000 13.89609395    12
CTC1_L_00181024-04
1 89466U 22145GX  26070.40833333  .00000000  00000+0  00000-0 0  9998
2 89466  95.0000 276.0000 0000000   0.0000 186.0000 13.89609395    13
CTC1_L_00181025-01
1 89467U 26808PJ  26070.40833333  .00000000  00000+0  00000-0 0  9999
2 89467  95.0000 288.0000 0000000   0.0000 288.0000 13.89609395    10
CTC1_L_00181025-02
1 89468U 24719MH  26070.40833333  .00000000  00000+0  00000-0 0  9999
2 89468  95.0000 288.0000 0000000   0.0000  18.0000 13.89609395    12
CTC1_L_00181025-03
1 89469U 26210VD  26070.40833333  .00000000  00000+0  00000-0 0  9998
2 89469  95.0000 288.0000 0000000   0.0000 108.0000 13.89609395    13
CTC1_L_00181025-04
1 89470U 26097KW  26070.40833333  .00000000  00000+0  00000-0 0  9993
2 89470  95.0000 288.0000 0000000   0.0000 198.0000 13.89609395    14
CTC1_L_00181026-01
1 89471U 26372CT  26070.40833333  .00000000  00000+0  00000-0 0  9990
2 89471  95.0000 300.0000 0000000   0.0000 300.0000 13.89609395    15
CTC1_L_00181026-02
1 89472U 26618LL  26070.40833333  .00000000  00000+0  00000-0 0  9994
2 89472  95.0000 300.0000 0000000   0.0000  30.0000 13.89609395    16
CTC1_L_00181026-03
1 89473U 26739MB  26070.40833333  .00000000  00000+0  00000-0 0  9999
2 89473  95.0000 300.0000 0000000   0.0000 120.0000 13.89609395    17
CTC1_L_00181026-04
1 89474U 25443CR  26070.40833333  .00000000  00000+0  00000-0 0  9991
2 89474  95.0000 300.0000 0000000   0.0000 210.0000 13.89609395    18
CTC1_L_00181027-01
1 89475U 23663UF  26070.40833333  .00000000  00000+0  00000-0 0  9994
2 89475  95.0000 312.0000 0000000   0.0000 312.0000 13.89609395    15
CTC1_L_00181027-02
1 89476U 24007H   26070.40833333  .00000000  00000+0  00000-0 0  9998
2 89476  95.0000 312.0000 0000000   0.0000  42.0000 13.89609395    16
CTC1_L_00181027-03
1 89477U 23596SV  26070.40833333  .00000000  00000+0  00000-0 0  9991
2 89477  95.0000 312.0000 0000000   0.0000 132.0000 13.89609395    17
CTC1_L_00181027-04
1 89478U 22360LR  26070.40833333  .00000000  00000+0  00000-0 0  9990
2 89478  95.0000 312.0000 0000000   0.0000 222.0000 13.89609395    18
CTC1_L_00181028-01
1 89479U 22561UH  26070.40833333  .00000000  00000+0  00000-0 0  9994
2 89479  95.0000 324.0000 0000000   0.0000 324.0000 13.89609395    15
CTC1_L_00181028-02
1 89480U 25559AM  26070.40833333  .00000000  00000+0  00000-0 0  9996
2 89480  95.0000 324.0000 0000000   0.0000  54.0000 13.89609395    17
CTC1_L_00181028-03
1 89481U 25545HP  26070.40833333  .00000000  00000+0  00000-0 0  9992
2 89481  95.0000 324.0000 0000000   0.0000 144.0000 13.89609395    18
CTC1_L_00181028-04
1 89482U 24116AC  26070.40833333  .00000000  00000+0  00000-0 0  9996
2 89482  95.0000 324.0000 0000000   0.0000 234.0000 13.89609395    19
CTC1_L_00181029-01
1 89483U 22344NX  26070.40833333  .00000000  00000+0  00000-0 0  9998
2 89483  95.0000 336.0000 0000000   0.0000 336.0000 13.89609395    16
CTC1_L_00181029-02
1 89484U 23568BI  26070.40833333  .00000000  00000+0  00000-0 0  9998
2 89484  95.0000 336.0000 0000000   0.0000  66.0000 13.89609395    17
CTC1_L_00181029-03
1 89485U 24396FO  26070.40833333  .00000000  00000+0  00000-0 0  9999
2 89485  95.0000 336.0000 0000000   0.0000 156.0000 13.89609395    18
CTC1_L_00181029-04
1 89486U 22868I   26070.40833333  .00000000  00000+0  00000-0 0  9992
2 89486  95.0000 336.0000 0000000   0.0000 246.0000 13.89609395    19
CTC1_L_00181030-01
1 89487U 22530VZ  26070.40833333  .00000000  00000+0  00000-0 0  9999
2 89487  95.0000 348.0000 0000000   0.0000 348.0000 13.89609395    16
CTC1_L_00181030-02
1 89488U 25886LS  26070.40833333  .00000000  00000+0  00000-0 0  9997
2 89488  95.0000 348.0000 0000000   0.0000  78.0000 13.89609395    17
CTC1_L_00181030-03
1 89489U 22670OK  26070.40833333  .00000000  00000+0  00000-0 0  9996
2 89489  95.0000 348.0000 0000000   0.0000 168.0000 13.89609395    18
CTC1_L_00181030-04
1 89490U 22117QW  26070.40833333  .00000000  00000+0  00000-0 0  9994
2 89490  95.0000 348.0000 0000000   0.0000 258.0000 13.89609395    10
